IRIDIUM 155             
1 43573U 18061E   23110.27933339  .00000451  00000+0  15403-3 0  9999
2 43573  86.4025 178.9337 0002341 103.1670 256.9787 14.34214634247969
IRIDIUM 154             
1 43574U 18061F   23110.26030568  .00000245  00000+0  80460-4 0  9998
2 43574  86.4032 179.0192 0002077  92.2039 267.9395 14.34212889248016
IRIDIUM 163             
1 43575U 18061G   23110.24128199  .00000326  00000+0  10924-3 0  9992
2 43575  86.4028 178.9783 0002414  94.1279 266.0192 14.34218389247989
IRIDIUM 156             
1 43576U 18061H   23110.28567721  .00000039  00000+0  67946-5 0  9994
2 43576  86.4029 178.9656 0002492  99.0480 261.0998 14.34212291247989
IRIDIUM 164             
1 43577U 18061J   23110.26664246  .00000079  00000+0  21044-4 0  9995
2 43577  86.4031 178.9956 0002302  91.7739 268.3721 14.34214575248029
IRIDIUM 159             
1 43578U 18061K   23110.23493703  .00000122  00000+0  36352-4 0  9998
2 43578  86.4030 178.9704 0002180  97.3938 262.7505 14.34216149247988
IRIDIUM 180             
1 43922U 19002A   23110.44374288  .00000038  00000+0  66745-5 0  9992
2 43922  86.3921 115.8140 0002296  87.3400 272.8059 14.34218180223622
IRIDIUM 176             
1 43923U 19002B   23110.47521793  .00000740  00000+0  11338-3 0  9997
2 43923  86.6055 115.8419 0002638  95.9622 264.1895 14.72256206229502
IRIDIUM 168             
1 43924U 19002C   23110.36763779  .00000418  00000+0  14218-3 0  9990
2 43924  86.3923 115.8908 0002299  90.5771 269.5689 14.34218955223596
IRIDIUM 173             
1 43925U 19002D   23110.28517919  .00000035  00000+0  54462-5 0  9997
2 43925  86.3919 115.8613 0002219  86.3780 273.7669 14.34218260223561
IRIDIUM 169             
1 43926U 19002E   23110.53065425  .00000695  00000+0  22064-3 0  9999
2 43926  86.4228 147.3605 0004306 151.1831 208.9606 14.38602168224362
IRIDIUM 172             
1 43927U 19002F   23110.41837695  .00000241  00000+0  78974-4 0  9992
2 43927  86.3921 115.8100 0002224  89.0858 271.0592 14.34220373223596
IRIDIUM 175             
1 43928U 19002G   23110.53665050  .00000745  00000+0  11419-3 0  9999
2 43928  86.1468 112.8886 0002521  92.5850 267.5655 14.72246426229506
IRIDIUM 171             
1 43929U 19002H   23110.46911237  .00000320  00000+0  10716-3 0  9991
2 43929  86.3928 115.9671 0002207  86.9203 273.2245 14.34218950223597
IRIDIUM 170             
1 43930U 19002J   23110.27746191  .00000760  00000+0  11668-3 0  9992
2 43930  86.6055 115.9296 0002521  94.0347 266.1158 14.72257730229483
IRIDIUM 167             
1 43931U 19002K   23110.46276319  .00000236  00000+0  77273-4 0  9997
2 43931  86.3922 115.8036 0002219  83.8416 276.3032 14.34219217223598
